{"type": "FeatureCollection", "features": [ {"type": "Feature", "properties": {"norad_id": 35744, "name": "IRIDIUM 33 DEB", "group": "iridium-33-debris", "lat": -47.467194181920796, "lon": -43.05788585524206, "alt_km": 678.1829575455458, "timestamp": "2025-12-22T15:43:49.393974+00:00", "meta": {"OBJECT_NAME": "IRIDIUM 33 DEB", "OBJECT_ID": "1997-051RX", "EPOCH": "2025-12-22T04:31:11.479584", "MEAN_MOTION": 14.71109579, "ECCENTRICITY": 0.00215595, "INCLINATION": 86.3295, "RA_OF_ASC_NODE": 321.1656, "ARG_OF_PERICENTER": 158.9993, "MEAN_ANOMALY": 201.2114, "EPHEMERIS_TYPE": 0, "CLASSIFICATION_TYPE": "U", "NORAD_CAT_ID": 35744, "ELEMENT_SET_NO": 999, "REV_AT_EPOCH": 87470, "BSTAR": 0.0011466876, "MEAN_MOTION_DOT": 7.1e-05, "MEAN_MOTION_DDOT": 0}, "tle": {"line1": "1 35744U 97051RX  25356.18832731  .00007100  00000+0  11467-2 0  9997", "line2": "2 35744  86.3295 321.1656 0021559 158.9993 201.2114 14.71109579874709"}}, "geometry": {"type": "Point", "coordinates": [-43.05788585524206, -47.467194181920796]}}, {"type": "Feature", "properties": {"norad_id": 35797, "name": "IRIDIUM 33 DEB", "group": "iridium-33-debris", "lat": 77.57938419146856, "lon": 128.50020013314423, "alt_km": 602.9030203370667, "timestamp": "2025-12-22T15:43:49.393984+00:00", "meta": {"OBJECT_NAME": "IRIDIUM 33 DEB", "OBJECT_ID": "1997-051SF", "EPOCH": "2025-12-20T04:58:23.124576", "MEAN_MOTION": 14.82943756, "ECCENTRICITY": 0.00144438, "INCLINATION": 86.3358, "RA_OF_ASC_NODE": 326.5409, "ARG_OF_PERICENTER": 124.2299, "MEAN_ANOMALY": 236.0295, "EPHEMERIS_TYPE": 0, "CLASSIFICATION_TYPE": "U", "NORAD_CAT_ID": 35797, "ELEMENT_SET_NO": 999, "REV_AT_EPOCH": 87451, "BSTAR": 0.0011307637, "MEAN_MOTION_DOT": 9.219e-05, "MEAN_MOTION_DDOT": 0}, "tle": {"line1": "1 35797U 97051SF  25354.20721209  .00009219  00000+0  11308-2 0  9990", "line2": "2 35797  86.3358 326.5409 0014443 124.2299 236.0295 14.82943756874511"}}, "geometry": {"type": "Point", "coordinates": [128.50020013314423, 77.57938419146856]}}, {"type": "Feature", "properties": {"norad_id": 35806, "name": "IRIDIUM 33 DEB", "group": "iridium-33-debris", "lat": -38.943712388180685, "lon": -160.77499923837996, "alt_km": 719.2759539899971, "timestamp": "2025-12-22T15:43:49.393994+00:00", "meta": {"OBJECT_NAME": "IRIDIUM 33 DEB", "OBJECT_ID": "1997-051SQ", "EPOCH": "2025-12-16T08:46:37.248096", "MEAN_MOTION": 14.57379748, "ECCENTRICITY": 0.00158634, "INCLINATION": 86.3444, "RA_OF_ASC_NODE": 19.032, "ARG_OF_PERICENTER": 64.1996, "MEAN_ANOMALY": 296.0847, "EPHEMERIS_TYPE": 0, "CLASSIFICATION_TYPE": "U", "NORAD_CAT_ID": 35806, "ELEMENT_SET_NO": 999, "REV_AT_EPOCH": 86377, "BSTAR": 0.00073764812, "MEAN_MOTION_DOT": 3.369e-05, "MEAN_MOTION_DDOT": 0}, "tle": {"line1": "1 35806U 97051SQ  25350.36570889  .00003369  00000+0  73765-3 0  9996", "line2": "2 35806  86.3444  19.0320 0015863  64.1996 296.0847 14.57379748863778"}}, "geometry": {"type": "Point", "coordinates": [-160.77499923837996, -38.943712388180685]}}, {"type": "Feature", "properties": {"norad_id": 35809, "name": "IRIDIUM 33 DEB", "group": "iridium-33-debris", "lat": 20.177123382393155, "lon": 149.47930720277046, "alt_km": 637.1925330186423, "timestamp": "2025-12-22T15:43:49.394004+00:00", "meta": {"OBJECT_NAME": "IRIDIUM 33 DEB", "OBJECT_ID": "1997-051ST", "EPOCH": "2025-12-21T16:13:39.380736", "MEAN_MOTION": 14.75870585, "ECCENTRICITY": 0.00102664, "INCLINATION": 86.3279, "RA_OF_ASC_NODE": 331.2775, "ARG_OF_PERICENTER": 205.8578, "MEAN_ANOMALY": 154.2129, "EPHEMERIS_TYPE": 0, "CLASSIFICATION_TYPE": "U", "NORAD_CAT_ID": 35809, "ELEMENT_SET_NO": 999, "REV_AT_EPOCH": 86939, "BSTAR": 0.0013721853, "MEAN_MOTION_DOT": 9.452e-05, "MEAN_MOTION_DDOT": 0}, "tle": {"line1": "1 35809U 97051ST  25355.67615024  .00009452  00000+0  13722-2 0  9994", "line2": "2 35809  86.3279 331.2775 0010266 205.8578 154.2129 14.75870585869399"}}, "geometry": {"type": "Point", "coordinates": [149.47930720277046, 20.177123382393155]}}, {"type": "Feature", "properties": {"norad_id": 35846, "name": "IRIDIUM 33 DEB", "group": "iridium-33-debris", "lat": -38.3081569695094, "lon": -122.51946760002507, "alt_km": 751.8933268706132, "timestamp": "2025-12-22T15:43:49.394013+00:00", "meta": {"OBJECT_NAME": "IRIDIUM 33 DEB", "OBJECT_ID": "1997-051SW", "EPOCH": "2025-12-20T14:27:58.084704", "MEAN_MOTION": 14.43184351, "ECCENTRICITY": 0.0019529, "INCLINATION": 86.3741, "RA_OF_ASC_NODE": 55.4852, "ARG_OF_PERICENTER": 145.7638, "MEAN_ANOMALY": 214.4826, "EPHEMERIS_TYPE": 0, "CLASSIFICATION_TYPE": "U", "NORAD_CAT_ID": 35846, "ELEMENT_SET_NO": 999, "REV_AT_EPOCH": 71442, "BSTAR": 0.00034499, "MEAN_MOTION_DOT": 1.181e-05, "MEAN_MOTION_DDOT": 0}, "tle": {"line1": "1 35846U 97051SW  25354.60275561  .00001181  00000+0  34499-3 0  9991", "line2": "2 35846  86.3741  55.4852 0019529 145.7638 214.4826 14.43184351714425"}}, "geometry": {"type": "Point", "coordinates": [-122.51946760002507, -38.3081569695094]}}, {"type": "Feature", "properties": {"norad_id": 35848, "name": "IRIDIUM 33 DEB", "group": "iridium-33-debris", "lat": -36.94061599927097, "lon": -165.61455594736168, "alt_km": 636.7099519926387, "timestamp": "2025-12-22T15:43:49.394023+00:00", "meta": {"OBJECT_NAME": "IRIDIUM 33 DEB", "OBJECT_ID": "1997-051SY", "EPOCH": "2025-12-20T18:54:17.008704", "MEAN_MOTION": 14.78786946, "ECCENTRICITY": 0.00088391, "INCLINATION": 86.3889, "RA_OF_ASC_NODE": 12.5039, "ARG_OF_PERICENTER": 160.7491, "MEAN_ANOMALY": 199.4066, "EPHEMERIS_TYPE": 0, "CLASSIFICATION_TYPE": "U", "NORAD_CAT_ID": 35848, "ELEMENT_SET_NO": 999, "REV_AT_EPOCH": 66809, "BSTAR": 0.00088484231, "MEAN_MOTION_DOT": 6.531e-05, "MEAN_MOTION_DDOT": 0}, "tle": {"line1": "1 35848U 97051SY  25354.78769686  .00006531  00000+0  88484-3 0  9995", "line2": "2 35848  86.3889  12.5039 0008839 160.7491 199.4066 14.78786946668092"}}, "geometry": {"type": "Point", "coordinates": [-165.61455594736168, -36.94061599927097]}}, {"type": "Feature", "properties": {"norad_id": 35850, "name": "IRIDIUM 33 DEB", "group": "iridium-33-debris", "lat": -9.051414750294423, "lon": 160.31606264106887, "alt_km": 630.8620110122738, "timestamp": "2025-12-22T15:43:49.394033+00:00", "meta": {"OBJECT_NAME": "IRIDIUM 33 DEB", "OBJECT_ID": "1997-051TA", "EPOCH": "2025-12-22T05:08:12.137568", "MEAN_MOTION": 14.79013382, "ECCENTRICITY": 0.00105322, "INCLINATION": 86.3492, "RA_OF_ASC_NODE": 339.9341, "ARG_OF_PERICENTER": 151.6357, "MEAN_ANOMALY": 208.5439, "EPHEMERIS_TYPE": 0, "CLASSIFICATION_TYPE": "U", "NORAD_CAT_ID": 35850, "ELEMENT_SET_NO": 999, "REV_AT_EPOCH": 71497, "BSTAR": 0.0017731547, "MEAN_MOTION_DOT": 0.00013147, "MEAN_MOTION_DDOT": 0}, "tle": {"line1": "1 35850U 97051TA  25356.21402937  .00013147  00000+0  17732-2 0  9999", "line2": "2 35850  86.3492 339.9341 0010532 151.6357 208.5439 14.79013382714973"}}, "geometry": {"type": "Point", "coordinates": [160.31606264106887, -9.051414750294423]}}, {"type": "Feature", "properties": {"norad_id": 35915, "name": "IRIDIUM 33 DEB", "group": "iridium-33-debris", "lat": -17.565406631096398, "lon": 159.58490431716112, "alt_km": 625.6323097325339, "timestamp": "2025-12-22T15:43:49.394043+00:00", "meta": {"OBJECT_NAME": "IRIDIUM 33 DEB", "OBJECT_ID": "1997-051TY", "EPOCH": "2025-12-21T06:24:31.855104", "MEAN_MOTION": 14.80926982, "ECCENTRICITY": 0.0012051, "INCLINATION": 86.3439, "RA_OF_ASC_NODE": 339.0596, "ARG_OF_PERICENTER": 155.4258, "MEAN_ANOMALY": 204.754, "EPHEMERIS_TYPE": 0, "CLASSIFICATION_TYPE": "U", "NORAD_CAT_ID": 35915, "ELEMENT_SET_NO": 999, "REV_AT_EPOCH": 8212, "BSTAR": 0.0012339, "MEAN_MOTION_DOT": 9.58e-05, "MEAN_MOTION_DDOT": 0}, "tle": {"line1": "1 35915U 97051TY  25355.26703536  .00009580  00000+0  12339-2 0  9998", "line2": "2 35915  86.3439 339.0596 0012051 155.4258 204.7540 14.80926982 82126"}}, "geometry": {"type": "Point", "coordinates": [159.58490431716112, -17.565406631096398]}}, {"type": "Feature", "properties": {"norad_id": 35918, "name": "IRIDIUM 33 DEB", "group": "iridium-33-debris", "lat": 17.83186674714383, "lon": 72.72007334791442, "alt_km": 731.7749270499744, "timestamp": "2025-12-22T15:43:49.394054+00:00", "meta": {"OBJECT_NAME": "IRIDIUM 33 DEB", "OBJECT_ID": "1997-051UB", "EPOCH": "2025-12-21T23:54:39.298752", "MEAN_MOTION": 14.51316064, "ECCENTRICITY": 0.0028353, "INCLINATION": 86.4007, "RA_OF_ASC_NODE": 71.8428, "ARG_OF_PERICENTER": 139.9313, "MEAN_ANOMALY": 36.6776, "EPHEMERIS_TYPE": 0, "CLASSIFICATION_TYPE": "U", "NORAD_CAT_ID": 35918, "ELEMENT_SET_NO": 999, "REV_AT_EPOCH": 85341, "BSTAR": 0.0010087, "MEAN_MOTION_DOT": 4.056e-05, "MEAN_MOTION_DDOT": 0}, "tle": {"line1": "1 35918U 97051UB  25355.99628818  .00004056  00000+0  10087-2 0  9991", "line2": "2 35918  86.4007  71.8428 0028353 139.9313  36.6776 14.51316064853410"}}, "geometry": {"type": "Point", "coordinates": [72.72007334791442, 17.83186674714383]}}, {"type": "Feature", "properties": {"norad_id": 35929, "name": "IRIDIUM 33 DEB", "group": "iridium-33-debris", "lat": 16.71595675430853, "lon": 126.8231572117743, "alt_km": 569.3253847072056, "timestamp": "2025-12-22T15:43:49.394064+00:00", "meta": {"OBJECT_NAME": "IRIDIUM 33 DEB", "OBJECT_ID": "1997-051UN", "EPOCH": "2025-12-19T03:54:47.819808", "MEAN_MOTION": 15.02824577, "ECCENTRICITY": 0.00169983, "INCLINATION": 86.3333, "RA_OF_ASC_NODE": 309.5832, "ARG_OF_PERICENTER": 16.9141, "MEAN_ANOMALY": 343.2656, "EPHEMERIS_TYPE": 0, "CLASSIFICATION_TYPE": "U", "NORAD_CAT_ID": 35929, "ELEMENT_SET_NO": 999, "REV_AT_EPOCH": 87876, "BSTAR": 0.0020745591, "MEAN_MOTION_DOT": 0.00027961, "MEAN_MOTION_DDOT": 0}, "tle": {"line1": "1 35929U 97051UN  25353.16305347  .00027961  00000+0  20746-2 0  9992", "line2": "2 35929  86.3333 309.5832 0016998  16.9141 343.2656 15.02824577878767"}}, "geometry": {"type": "Point", "coordinates": [126.8231572117743, 16.71595675430853]}}]}